{
  "type": "FeatureCollection",
  "features": [
    {
      "type": "Feature",
      "properties": {
        "norad_id": 64751,
        "name": "PROGRESS-MS 31",
        "group": "stations",
        "lat": 51.60439161073087,
        "lon": -137.2300612685814,
        "alt_km": 412.84189984646855,
        "timestamp": "2025-12-14T22:38:39.540479+00:00",
        "meta_object_name": "PROGRESS-MS 31",
        "meta_object_id": "2025-146A",
        "meta_epoch": "2025-12-14T05:13:44.174496",
        "meta_mean_motion": 15.49586484,
        "meta_eccentricity": 0.00032642,
        "meta_inclination": 51.6305,
        "meta_ra_of_asc_node": 135.1599,
        "meta_arg_of_pericenter": 246.9077,
        "meta_mean_anomaly": 113.1568,
        "meta_ephemeris_type": 0,
        "meta_classification_type": "U",
        "meta_norad_cat_id": 64751,
        "meta_element_set_no": 999,
        "meta_rev_at_epoch": 675,
        "meta_bstar": 0.00022198491,
        "meta_mean_motion_dot": 0.00012052,
        "meta_mean_motion_ddot": 0,
        "tle_line1": "1 64751U 25146A   25348.21787239  .00012052  00000+0  22198-3 0  9996",
        "tle_line2": "2 64751  51.6305 135.1599 0003264 246.9077 113.1568 15.49586484  6755"
      },
      "geometry": {
        "type": "Point",
        "coordinates": [
          -137.2300612685814,
          51.60439161073087
        ]
      }
    },
    {
      "type": "Feature",
      "properties": {
        "norad_id": 64786,
        "name": "TIANZHOU-9",
        "group": "stations",
        "lat": -39.18807309483744,
        "lon": -64.06236277019343,
        "alt_km": 395.5648353589695,
        "timestamp": "2025-12-14T22:38:39.540492+00:00",
        "meta_object_name": "TIANZHOU-9",
        "meta_object_id": "2025-149A",
        "meta_epoch": "2025-12-14T07:34:58.944000",
        "meta_mean_motion": 15.59258965,
        "meta_eccentricity": 0.00080649,
        "meta_inclination": 41.4685,
        "meta_ra_of_asc_node": 7.139,
        "meta_arg_of_pericenter": 44.1445,
        "meta_mean_anomaly": 316.0035,
        "meta_ephemeris_type": 0,
        "meta_classification_type": "U",
        "meta_norad_cat_id": 64786,
        "meta_element_set_no": 999,
        "meta_rev_at_epoch": 25530,
        "meta_bstar": 0.00032167744,
        "meta_mean_motion_dot": 0.00025793,
        "meta_mean_motion_ddot": 0,
        "tle_line1": "1 64786U 25149A   25348.31596000  .00025793  00000+0  32168-3 0  9996",
        "tle_line2": "2 64786  41.4685   7.1390 0008064  44.1445 316.0035 15.59258965255309"
      },
      "geometry": {
        "type": "Point",
        "coordinates": [
          -64.06236277019343,
          -39.18807309483744
        ]
      }
    },
    {
      "type": "Feature",
      "properties": {
        "norad_id": 65077,
        "name": "CREW DRAGON 11",
        "group": "stations",
        "lat": 51.60439158621068,
        "lon": -137.23005887529368,
        "alt_km": 412.841899829059,
        "timestamp": "2025-12-14T22:38:39.540502+00:00",
        "meta_object_name": "CREW DRAGON 11",
        "meta_object_id": "2025-166A",
        "meta_epoch": "2025-12-14T05:13:44.174496",
        "meta_mean_motion": 15.49586484,
        "meta_eccentricity": 0.00032642,
        "meta_inclination": 51.6305,
        "meta_ra_of_asc_node": 135.1599,
        "meta_arg_of_pericenter": 246.9077,
        "meta_mean_anomaly": 113.1568,
        "meta_ephemeris_type": 0,
        "meta_classification_type": "U",
        "meta_norad_cat_id": 65077,
        "meta_element_set_no": 999,
        "meta_rev_at_epoch": 214,
        "meta_bstar": 0.00022198491,
        "meta_mean_motion_dot": 0.00012052,
        "meta_mean_motion_ddot": 0,
        "tle_line1": "1 65077U 25166A   25348.21787239  .00012052  00000+0  22198-3 0  9990",
        "tle_line2": "2 65077  51.6305 135.1599 0003264 246.9077 113.1568 15.49586484  2146"
      },
      "geometry": {
        "type": "Point",
        "coordinates": [
          -137.23005887529368,
          51.60439158621068
        ]
      }
    },
    {
      "type": "Feature",
      "properties": {
        "norad_id": 65304,
        "name": "DRAGON CRS-33",
        "group": "stations",
        "lat": 51.60439157554975,
        "lon": -137.23005783473607,
        "alt_km": 412.84189982148746,
        "timestamp": "2025-12-14T22:38:39.540512+00:00",
        "meta_object_name": "DRAGON CRS-33",
        "meta_object_id": "2025-186A",
        "meta_epoch": "2025-12-14T05:13:44.174496",
        "meta_mean_motion": 15.49586484,
        "meta_eccentricity": 0.00032642,
        "meta_inclination": 51.6305,
        "meta_ra_of_asc_node": 135.1599,
        "meta_arg_of_pericenter": 246.9077,
        "meta_mean_anomaly": 113.1568,
        "meta_ephemeris_type": 0,
        "meta_classification_type": "U",
        "meta_norad_cat_id": 65304,
        "meta_element_set_no": 999,
        "meta_rev_at_epoch": 11,
        "meta_bstar": 0.00022198491,
        "meta_mean_motion_dot": 0.00012052,
        "meta_mean_motion_ddot": 0,
        "tle_line1": "1 65304U 25186A   25348.21787239  .00012052  00000+0  22198-3 0  9995",
        "tle_line2": "2 65304  51.6305 135.1599 0003264 246.9077 113.1568 15.49586484   114"
      },
      "geometry": {
        "type": "Point",
        "coordinates": [
          -137.23005783473607,
          51.60439157554975
        ]
      }
    },
    {
      "type": "Feature",
      "properties": {
        "norad_id": 65586,
        "name": "PROGRESS-MS 32",
        "group": "stations",
        "lat": 51.60439156275656,
        "lon": -137.23005658606482,
        "alt_km": 412.8418998124034,
        "timestamp": "2025-12-14T22:38:39.540524+00:00",
        "meta_object_name": "PROGRESS-MS 32",
        "meta_object_id": "2025-204A",
        "meta_epoch": "2025-12-14T05:13:44.174496",
        "meta_mean_motion": 15.49586484,
        "meta_eccentricity": 0.00032642,
        "meta_inclination": 51.6305,
        "meta_ra_of_asc_node": 135.1599,
        "meta_arg_of_pericenter": 246.9077,
        "meta_mean_anomaly": 113.1568,
        "meta_ephemeris_type": 0,
        "meta_classification_type": "U",
        "meta_norad_cat_id": 65586,
        "meta_element_set_no": 999,
        "meta_rev_at_epoch": 27,
        "meta_bstar": 0.00022198491,
        "meta_mean_motion_dot": 0.00012052,
        "meta_mean_motion_ddot": 0,
        "tle_line1": "1 65586U 25204A   25348.21787239  .00012052  00000+0  22198-3 0  9998",
        "tle_line2": "2 65586  51.6305 135.1599 0003264 246.9077 113.1568 15.49586484   273"
      },
      "geometry": {
        "type": "Point",
        "coordinates": [
          -137.23005658606482,
          51.60439156275656
        ]
      }
    },
    {
      "type": "Feature",
      "properties": {
        "norad_id": 65616,
        "name": "CYGNUS NG-23",
        "group": "stations",
        "lat": 51.604391552095564,
        "lon": -137.23005554550193,
        "alt_km": 412.8418998048346,
        "timestamp": "2025-12-14T22:38:39.540534+00:00",
        "meta_object_name": "CYGNUS NG-23",
        "meta_object_id": "2025-208A",
        "meta_epoch": "2025-12-14T05:13:44.174496",
        "meta_mean_motion": 15.49586484,
        "meta_eccentricity": 0.00032642,
        "meta_inclination": 51.6305,
        "meta_ra_of_asc_node": 135.1599,
        "meta_arg_of_pericenter": 246.9077,
        "meta_mean_anomaly": 113.1568,
        "meta_ephemeris_type": 0,
        "meta_classification_type": "U",
        "meta_norad_cat_id": 65616,
        "meta_element_set_no": 999,
        "meta_rev_at_epoch": 22,
        "meta_bstar": 0.00022198491,
        "meta_mean_motion_dot": 0.00012052,
        "meta_mean_motion_ddot": 0,
        "tle_line1": "1 65616U 25208A   25348.21787239  .00012052  00000+0  22198-3 0  9996",
        "tle_line2": "2 65616  51.6305 135.1599 0003264 246.9077 113.1568 15.49586484   222"
      },
      "geometry": {
        "type": "Point",
        "coordinates": [
          -137.23005554550193,
          51.604391552095564
        ]
      }
    },
    {
      "type": "Feature",
      "properties": {
        "norad_id": 65729,
        "name": "DRAGONFLY",
        "group": "stations",
        "lat": -47.362777532662946,
        "lon": 3.864375431834018,
        "alt_km": 351.9755733604543,
        "timestamp": "2025-12-14T22:38:39.540544+00:00",
        "meta_object_name": "DRAGONFLY",
        "meta_object_id": "1998-067XH",
        "meta_epoch": "2025-12-13T16:36:27.743328",
        "meta_mean_motion": 15.72310549,
        "meta_eccentricity": 0.00068171,
        "meta_inclination": 51.6241,
        "meta_ra_of_asc_node": 130.8872,
        "meta_arg_of_pericenter": 284.278,
        "meta_mean_anomaly": 75.7461,
        "meta_ephemeris_type": 0,
        "meta_classification_type": "U",
        "meta_norad_cat_id": 65729,
        "meta_element_set_no": 999,
        "meta_rev_at_epoch": 1331,
        "meta_bstar": 0.0013020604,
        "meta_mean_motion_dot": 0.00179632,
        "meta_mean_motion_ddot": 0,
        "tle_line1": "1 65729U 98067XH  25347.69198777  .00179632  00000+0  13021-2 0  9990",
        "tle_line2": "2 65729  51.6241 130.8872 0006817 284.2780  75.7461 15.72310549 13317"
      },
      "geometry": {
        "type": "Point",
        "coordinates": [
          3.864375431834018,
          -47.362777532662946
        ]
      }
    }
  ]
}